{
    "links": {
        "self": "http://www.neowsapp.com/rest/v1/neo/3735466?api_key=iIulBulltgU6a56xZRHN4H3l9WmuAYTsLGpBGhQ2"
    },
    "id": "3735466",
    "neo_reference_id": "3735466",
    "name": "(2015 WW1)",
    "designation": "2015 WW1",
    "nasa_jpl_url": "http://ssd.jpl.nasa.gov/sbdb.cgi?sstr=3735466",
    "absolute_magnitude_h": 24.9,
    "estimated_diameter": {
        "kilometers": {
            "estimated_diameter_min": 0.0278326768,
            "estimated_diameter_max": 0.0622357573
        },
        "meters": {
            "estimated_diameter_min": 27.8326768072,
            "estimated_diameter_max": 62.2357573367
        },
        "miles": {
            "estimated_diameter_min": 0.0172944182,
            "estimated_diameter_max": 0.0386714948
        },
        "feet": {
            "estimated_diameter_min": 91.3145593761,
            "estimated_diameter_max": 204.1855621004
        }
    },
    "is_potentially_hazardous_asteroid": false,
    "close_approach_data": [
        {
            "close_approach_date": "2011-12-14",
            "close_approach_date_full": "2011-Dec-14 10:31",
            "epoch_date_close_approach": 1323858660000,
            "relative_velocity": {
                "kilometers_per_second": "21.5621395013",
                "kilometers_per_hour": "77623.7022047657",
                "miles_per_hour": "48232.3498505112"
            },
            "miss_distance": {
                "astronomical": "0.4638465307",
                "lunar": "180.4363004423",
                "kilometers": "69390452.999609609",
                "miles": "43117228.1215222442"
            },
            "orbiting_body": "Earth"
        },
        {
            "close_approach_date": "2013-12-02",
            "close_approach_date_full": "2013-Dec-02 07:01",
            "epoch_date_close_approach": 1385967660000,
            "relative_velocity": {
                "kilometers_per_second": "15.0398062432",
                "kilometers_per_hour": "54143.3024756003",
                "miles_per_hour": "33642.542585464"
            },
            "miss_distance": {
                "astronomical": "0.2440025175",
                "lunar": "94.9169793075",
                "kilometers": "36502256.892637725",
                "miles": "22681450.680241605"
            },
            "orbiting_body": "Earth"
        },
        {
            "close_approach_date": "2015-11-15",
            "close_approach_date_full": "2015-Nov-15 20:06",
            "epoch_date_close_approach": 1447617960000,
            "relative_velocity": {
                "kilometers_per_second": "8.6368042424",
                "kilometers_per_hour": "31092.4952726051",
                "miles_per_hour": "19319.6674098029"
            },
            "miss_distance": {
                "astronomical": "0.0404506823",
                "lunar": "15.7353154147",
                "kilometers": "6051335.912126701",
                "miles": "3760125.7764464338"
            },
            "orbiting_body": "Earth"
        },
        {
            "close_approach_date": "2019-08-15",
            "close_approach_date_full": "2019-Aug-15 01:54",
            "epoch_date_close_approach": 1565834040000,
            "relative_velocity": {
                "kilometers_per_second": "10.7953332801",
                "kilometers_per_hour": "38863.1998084021",
                "miles_per_hour": "24148.0810142819"
            },
            "miss_distance": {
                "astronomical": "0.1457437481",
                "lunar": "56.6943180109",
                "kilometers": "21802954.281576547",
                "miles": "13547727.5740964686"
            },
            "orbiting_body": "Earth"
        },
        {
            "close_approach_date": "2021-07-31",
            "close_approach_date_full": "2021-Jul-31 19:12",
            "epoch_date_close_approach": 1627758720000,
            "relative_velocity": {
                "kilometers_per_second": "16.711525214",
                "kilometers_per_hour": "60161.4907703244",
                "miles_per_hour": "37382.0107511496"
            },
            "miss_distance": {
                "astronomical": "0.3231727193",
                "lunar": "125.7141878077",
                "kilometers": "48345950.449387891",
                "miles": "30040780.5997432558"
            },
            "orbiting_body": "Earth"
        }
    ],
    "orbital_data": {
        "orbit_id": "13",
        "orbit_determination_date": "2017-04-06 08:30:29",
        "first_observation_date": "2015-11-20",
        "last_observation_date": "2015-12-09",
        "data_arc_in_days": 19,
        "observations_used": 73,
        "orbit_uncertainty": "7",
        "minimum_orbit_intersection": ".0317981",
        "jupiter_tisserand_invariant": "4.320",
        "epoch_osculation": "2459000.5",
        "eccentricity": ".3928052461460133",
        "semi_major_axis": "1.570433981658603",
        "inclination": "5.168038179746374",
        "ascending_node_longitude": "247.6680706171401",
        "orbital_period": "718.8329117542507",
        "perihelion_distance": ".9535592749371321",
        "perihelion_argument": "126.9410195598841",
        "aphelion_distance": "2.187308688380075",
        "perihelion_time": "2458750.548636725647",
        "mean_anomaly": "125.1785906117911",
        "mean_motion": ".5008117938304335",
        "equinox": "J2000",
        "orbit_class": {
            "orbit_class_type": "APO",
            "orbit_class_description": "Near-Earth asteroid orbits which cross the Earth’s orbit similar to that of 1862 Apollo",
            "orbit_class_range": "a (semi-major axis) > 1.0 AU; q (perihelion) < 1.017 AU"
        }
    },
    "is_sentry_object": false
}